OBJECT_NAME,OBJECT_ID,EPOCH,MEAN_MOTION,ECCENTRICITY,INCLINATION,RA_OF_ASC_NODE,ARG_OF_PERICENTER,MEAN_ANOMALY,EPHEMERIS_TYPE,CLASSIFICATION_TYPE,NORAD_CAT_ID,ELEMENT_SET_NO,REV_AT_EPOCH,BSTAR,MEAN_MOTION_DOT,MEAN_MOTION_DDOT
ONEWEB-0236,2021-045AG,2026-06-17T15:10:21.007776,13.15547119,.00021122,87.9001,259.1177,101.6062,258.5305,0,U,48797,999,24431,-.72900316E-4,-.15E-6,0
ONEWEB-0248,2021-045AH,2026-06-17T19:07:38.010144,13.15547563,.00017764,87.9013,259.0683,114.7250,245.4066,0,U,48798,999,24449,.29182714E-4,.24E-6,0
ONEWEB-0225,2021-045AJ,2026-06-17T19:39:35.304768,13.15548954,.00015078,87.9006,259.0721,110.9308,249.1984,0,U,48799,999,24450,-.27546274E-3,-.91E-6,0
ONEWEB-0215,2021-045AK,2026-06-17T18:56:12.926400,13.15547155,.00015206,87.9013,259.0607,118.3030,241.8253,0,U,48800,999,24437,.1147414E-3,.56E-6,0
ONEWEB-0216,2021-045AL,2026-06-17T19:09:55.710144,13.15548996,.00019831,87.9012,259.0736,98.4435,261.6920,0,U,48801,999,24438,-.10769497E-3,-.28E-6,0
ONEWEB-0239,2021-045AM,2026-06-17T19:16:45.998688,13.15548914,.00017088,87.9002,259.0788,125.0286,235.1005,0,U,48802,999,24442,-.12553058E-3,-.34E-6,0
ONEWEB-0249,2021-060A,2026-06-18T02:48:15.633504,13.16595785,.00020805,87.9097,228.5936,101.0649,259.0716,0,U,48967,999,23973,-.92124791E-4,-.22E-6,0
ONEWEB-0250,2021-060B,2026-06-18T03:18:15.717888,13.25834091,.00028409,87.9097,226.3426,112.8841,247.2595,0,U,48968,999,24034,.13076953E-3,.71E-6,0
ONEWEB-0252,2021-060D,2026-06-18T03:32:43.636128,13.16594380,.00018996,87.9095,228.5796,92.4947,267.6402,0,U,48970,999,23978,.28001795E-3,.12E-5,0
ONEWEB-0253,2021-060E,2026-06-18T03:16:46.149600,13.16593482,.00020781,87.9095,228.5874,101.1643,258.9721,0,U,48971,999,23971,.14570859E-3,.69E-6,0
ONEWEB-0254,2021-060F,2026-06-17T14:44:23.962272,13.16594799,.00019143,87.9098,228.6886,106.6215,253.5126,0,U,48972,999,23964,.23253261E-3,.102E-5,0
ONEWEB-0255,2021-060G,2026-06-18T02:35:43.792800,13.16595256,.00019298,87.9097,228.5971,101.7575,258.3773,0,U,48973,999,23978,-.30043903E-4,.1E-7,0
ONEWEB-0256,2021-060H,2026-06-18T03:13:19.983648,13.16604164,.00022674,87.9104,228.5976,105.6795,254.4586,0,U,48974,999,23975,-.54306838E-2,-.2063E-4,0
ONEWEB-0257,2021-060J,2026-06-18T02:10:38.672832,13.16595025,.00019,87.9098,228.5918,97.8218,262.3128,0,U,48975,999,23970,.21902694E-3,.97E-6,0
ONEWEB-0258,2021-060K,2026-06-18T02:12:55.740384,13.16594729,.00020585,87.9099,228.6032,98.6965,261.4400,0,U,48976,999,23971,.7948549E-4,.43E-6,0
ONEWEB-0259,2021-060L,2026-06-18T02:03:48.699648,13.16594968,.00020562,87.9096,228.6039,103.0301,257.1060,0,U,48977,999,23974,.22507637E-3,.99E-6,0
ONEWEB-0260,2021-060M,2026-06-18T01:51:15.859296,13.16594099,.00019409,87.9092,228.6073,86.1327,274.0026,0,U,48978,999,23972,.30976818E-3,.131E-5,0
ONEWEB-0261,2021-060N,2026-06-18T02:57:21.551040,13.16593951,.00017444,87.9093,228.5982,100.3650,259.7677,0,U,48979,999,23978,-.65760921E-3,-.239E-5,0
ONEWEB-0262,2021-060P,2026-06-18T02:28:53.194944,13.16595794,.00021362,87.9095,228.5885,106.2298,253.9069,0,U,48980,999,23974,.19609233E-4,.2E-6,0
ONEWEB-0263,2021-060Q,2026-06-18T03:14:29.016384,13.16594852,.00017725,87.9095,228.5935,104.0862,256.0466,0,U,48981,999,23971,.12566289E-3,.61E-6,0
ONEWEB-0264,2021-060R,2026-06-18T02:18:37.805760,13.16595755,.00018166,87.9099,228.6035,92.7434,267.3904,0,U,48982,999,23971,.17811794E-3,.81E-6,0
ONEWEB-0266,2021-060T,2026-06-18T02:49:24.547008,13.16594450,.00021533,87.9098,228.5903,98.2828,261.8547,0,U,48984,999,23970,-.81359923E-4,-.18E-6,0
ONEWEB-0267,2021-060U,2026-06-18T03:05:22.072416,13.16595020,.00018607,87.9096,228.5849,98.6548,261.4794,0,U,48985,999,23971,-.18107438E-4,.6E-7,0
ONEWEB-0268,2021-060V,2026-06-18T02:19:44.645664,13.16596364,.00020387,87.9101,228.6008,94.1148,266.0216,0,U,48986,999,23997,.11143926E-3,.55E-6,0
ONEWEB-0269,2021-060W,2026-06-17T14:55:47.762976,13.16594668,.00021758,87.9088,228.6975,93.0282,267.1098,0,U,48987,999,23968,.30850815E-3,.131E-5,0
ONEWEB-0270,2021-060X,2026-06-18T02:17:29.442624,13.16595088,.00018906,87.9101,228.6030,108.1448,251.9889,0,U,48988,999,23978,.12225003E-3,.6E-6,0
ONEWEB-0271,2021-060Y,2026-06-18T01:59:15.134784,13.16594494,.00018161,87.9096,228.5952,101.1611,258.9724,0,U,48989,999,23978,.27129641E-3,.117E-5,0
ONEWEB-0272,2021-060Z,2026-06-18T02:31:09.498720,13.16593145,.0001844,87.9098,228.6024,91.0943,269.0399,0,U,48990,999,23973,.1144926E-4,.17E-6,0
ONEWEB-0273,2021-060AA,2026-06-18T03:03:05.157792,13.16595252,.00019604,87.9098,228.5976,100.7344,259.4008,0,U,48991,999,23971,-.42540994E-4,-.3E-7,0
ONEWEB-0274,2021-060AB,2026-06-18T01:50:07.422720,13.16593916,.00019154,87.9088,228.6100,88.8985,271.2366,0,U,48992,999,23974,.18785018E-3,.85E-6,0
