ONEWEB-0236             
1 48797U 21045AG  26168.63218759 -.00000015  00000+0 -72900-4 0  9990
2 48797  87.9001 259.1177 0002112 101.6062 258.5305 13.15547119244315
ONEWEB-0248             
1 48798U 21045AH  26168.79696771  .00000024  00000+0  29183-4 0  9995
2 48798  87.9013 259.0683 0001776 114.7250 245.4066 13.15547563244490
ONEWEB-0225             
1 48799U 21045AJ  26168.81915862 -.00000091  00000+0 -27546-3 0  9990
2 48799  87.9006 259.0721 0001507 110.9308 249.1984 13.15548954244507
ONEWEB-0215             
1 48800U 21045AK  26168.78903850  .00000056  00000+0  11474-3 0  9995
2 48800  87.9013 259.0607 0001520 118.3030 241.8253 13.15547155244375
ONEWEB-0216             
1 48801U 21045AL  26168.79856146 -.00000028  00000+0 -10769-3 0  9999
2 48801  87.9012 259.0736 0001983  98.4435 261.6920 13.15548996244384
ONEWEB-0239             
1 48802U 21045AM  26168.80331017 -.00000034  00000+0 -12553-3 0  9997
2 48802  87.9002 259.0788 0001708 125.0286 235.1005 13.15548914244422
ONEWEB-0249             
1 48967U 21060A   26169.11684761 -.00000022  00000+0 -92125-4 0  9999
2 48967  87.9097 228.5936 0002080 101.0649 259.0716 13.16595785239736
ONEWEB-0250             
1 48968U 21060B   26169.13768192  .00000071  00000+0  13077-3 0  9993
2 48968  87.9097 226.3426 0002840 112.8841 247.2595 13.25834091240344
ONEWEB-0252             
1 48970U 21060D   26169.14772727  .00000120  00000+0  28002-3 0  9995
2 48970  87.9095 228.5796 0001899  92.4947 267.6402 13.16594380239785
ONEWEB-0253             
1 48971U 21060E   26169.13664525  .00000069  00000+0  14571-3 0  9999
2 48971  87.9095 228.5874 0002078 101.1643 258.9721 13.16593482239716
ONEWEB-0254             
1 48972U 21060F   26168.61416623  .00000102  00000+0  23253-3 0  9991
2 48972  87.9098 228.6886 0001914 106.6215 253.5126 13.16594799239641
ONEWEB-0255             
1 48973U 21060G   26169.10814575  .00000001  00000+0 -30044-4 0  9991
2 48973  87.9097 228.5971 0001929 101.7575 258.3773 13.16595256239781
ONEWEB-0256             
1 48974U 21060H   26169.13425907 -.00002063  00000+0 -54307-2 0  9999
2 48974  87.9104 228.5976 0002267 105.6795 254.4586 13.16604164239754
ONEWEB-0257             
1 48975U 21060J   26169.09072538  .00000097  00000+0  21903-3 0  9993
2 48975  87.9098 228.5918 0001900  97.8218 262.3128 13.16595025239708
ONEWEB-0258             
1 48976U 21060K   26169.09231181  .00000043  00000+0  79485-4 0  9995
2 48976  87.9099 228.6032 0002058  98.6965 261.4400 13.16594729239715
ONEWEB-0259             
1 48977U 21060L   26169.08598032  .00000099  00000+0  22508-3 0  9990
2 48977  87.9096 228.6039 0002056 103.0301 257.1060 13.16594968239745
ONEWEB-0260             
1 48978U 21060M   26169.07726689  .00000131  00000+0  30977-3 0  9997
2 48978  87.9092 228.6073 0001940  86.1327 274.0026 13.16594099239723
ONEWEB-0261             
1 48979U 21060N   26169.12316610 -.00000239  00000+0 -65761-3 0  9993
2 48979  87.9093 228.5982 0001744 100.3650 259.7677 13.16593951239787
ONEWEB-0262             
1 48980U 21060P   26169.10339346  .00000020  00000+0  19609-4 0  9991
2 48980  87.9095 228.5885 0002136 106.2298 253.9069 13.16595794239746
ONEWEB-0263             
1 48981U 21060Q   26169.13505806  .00000061  00000+0  12566-3 0  9990
2 48981  87.9095 228.5935 0001772 104.0862 256.0466 13.16594852239717
ONEWEB-0264             
1 48982U 21060R   26169.09627090  .00000081  00000+0  17812-3 0  9997
2 48982  87.9099 228.6035 0001816  92.7434 267.3904 13.16595755239716
ONEWEB-0266             
1 48984U 21060T   26169.11764522 -.00000018  00000+0 -81360-4 0  9996
2 48984  87.9098 228.5903 0002153  98.2828 261.8547 13.16594450239705
ONEWEB-0267             
1 48985U 21060U   26169.12872769  .00000006  00000+0 -18107-4 0  9996
2 48985  87.9096 228.5849 0001860  98.6548 261.4794 13.16595020239715
ONEWEB-0268             
1 48986U 21060V   26169.09704451  .00000055  00000+0  11144-3 0  9991
2 48986  87.9101 228.6008 0002038  94.1148 266.0216 13.16596364239976
ONEWEB-0269             
1 48987U 21060W   26168.62208059  .00000131  00000+0  30851-3 0  9994
2 48987  87.9088 228.6975 0002175  93.0282 267.1098 13.16594668239686
ONEWEB-0270             
1 48988U 21060X   26169.09547966  .00000060  00000+0  12225-3 0  9996
2 48988  87.9101 228.6030 0001890 108.1448 251.9889 13.16595088239787
ONEWEB-0271             
1 48989U 21060Y   26169.08281406  .00000117  00000+0  27130-3 0  9994
2 48989  87.9096 228.5952 0001816 101.1611 258.9724 13.16594494239781
ONEWEB-0272             
1 48990U 21060Z   26169.10497105  .00000017  00000+0  11449-4 0  9990
2 48990  87.9098 228.6024 0001844  91.0943 269.0399 13.16593145239730
ONEWEB-0273             
1 48991U 21060AA  26169.12714303 -.00000003  00000+0 -42541-4 0  9999
2 48991  87.9098 228.5976 0001960 100.7344 259.4008 13.16595252239717
ONEWEB-0274             
1 48992U 21060AB  26169.07647480  .00000085  00000+0  18785-3 0  9995
2 48992  87.9088 228.6100 0001915  88.8985 271.2366 13.16593916239741
